#dP2018 11 22  0  0  0.00000000      96 __u+U ITR00 FIT  IAC
## 2028 345600.00000000   900.00000000 58444 0.0000000000000
+   90   C01C02C03C04C05C06C07C08C09C10C12C13C14E01E02E03E04
+        E05E07E08E09E11E12E14E18E19E21E24E25E26E27E30E31G01
+        G02G03G05G06G07G08G09G10G11G12G13G14G15G16G17G19G20
+        G21G22G23G24G25G26G27G28G29G30G31G32J01J02J03J07R01
+        R02R03R04R05R07R08R09R10R11R13R14R15R16R17R18R19R20
+        R21R22R23R24R26  0  0  0  0  0  0  0  0  0  0  0  0
++        12 12 12 12 12  8  8  8  8  8  7  8  8  6  6  7  6
++         7  6  6  6  7  6  6  7  6  6  6  6  6  6  6  7  3
++         3  3  3  3  3  3  3  3  3  3  3  3  3  3  3  3  3
++         4  3  3  3  3  3  3  3  3  4  3  3 10  9  9 14  5
++         5  5  5  6  6  5  5  5  5  5  5  5  5  5  5  5  6
++         6  5  5  5  8  0  0  0  0  0  0  0  0  0  0  0  0
%c M  cc GPS ccc cccc cccc cccc cccc ccccc ccccc ccccc ccccc
%c cc cc ccc ccc cccc cccc cccc cccc ccccc ccccc ccccc ccccc
%f  0.0000000  0.000000000  0.00000000000  0.000000000000000
%f  0.0000000  0.000000000  0.00000000000  0.000000000000000
%i    0    0    0    0      0      0      0      0         0
%i    0    0    0    0      0      0      0      0         0
/* INFORMATION & ANALYSIS CENTER (IAC) OF MCC   (RAPID DATA)
/* S/V CLOCKS ARE ALIGNED TO GPS & GLONASS TIME RESPECTIVELY
/* USING THE BROADCAST EPHEMERIS                            
/* PCV:IGS14_2022 OL/AL:FES2004  NONE     YN ORB:CoN CLK:CoN
*  2018 11 22 15  0  0.00000000
PC01 -32290.001562  27118.156165    887.297799    -81.004335
PC02   4284.842277  41936.223312   -977.670936   -118.051602
PC03 -14826.890972  39433.332002    242.522022    -19.887941
PC04 -39614.555151  14507.807607    407.646791     -6.672961
PC05  21835.929143  36035.666067  -1238.034193    112.134499
PC06 -10229.800754  34898.907974 -20762.061103     75.508676
PC07 -15185.619783  21645.959044  32907.227513   -147.300146
PC08 -25324.165617  31081.197398 -13437.507006     40.119781
PC09    334.934878  41625.710975  -5251.481562    305.568597
PC10   2771.628545  27109.295899  32398.474698   -259.972689
PC12    932.288657 -25371.838139  11534.225236    227.871652
PC13 -12191.381586  31827.296582 -24955.554818   -390.510417
PC14 -20352.132927 -18551.103801  -4631.869585    282.593603
PE01  24145.045047  -5970.516030 -16043.396364   -483.423125
PE02 -24115.454786   6008.354864  16090.433585     36.191055
PE03 -14127.262047  10800.240517 -23669.895216   -102.567122
PE04   1273.537493 -26290.480438  13539.456061   -163.944469
PE05 -18785.177651 -11126.997317 -19991.000924    155.086914
PE07  12434.015054  26466.344394   4626.697200    -80.133485
PE08   -920.880998  26306.500872 -13553.771545   6457.819650
PE09 -12633.859241 -26354.858973  -4640.216063   6610.139284
PE11  -5481.278621 -17470.531330  23256.981464   5710.601674
PE12  12248.005094 -24887.150491  10350.628875   5554.985780
PE14  12273.989987  21463.629081 -17925.603068   6485.722448
PE18  -1761.961886 -25696.774560   6354.198551   5737.029049
PE19  14904.991424  -8671.917328  24055.377356    -10.442929
PE21  28615.503035   7183.585380   2437.208674   -505.759342
PE24 -16528.017629 -15901.756891 -18723.187892   6376.188305
PE25 -28606.667145  -7187.414820  -2446.002104   1975.764693
PE26  19573.075880    217.068697 -22195.477284   5219.146559
PE27  16003.049528  15917.860837  19160.348729    585.248950
PE30  -5420.658111  15480.195609  24639.845867   5329.294054
PE31   5973.344432 -15298.108086 -24613.247388    977.217786
PG01  -4112.814623  17184.546059 -19901.225009   -118.026111
PG02  21110.477452 -15563.957063   3939.904510    -65.745994
PG03   6765.725377  18948.889981 -17411.002419    162.861748
PG05  13462.629484  -9262.943615  20850.327628     -0.038741
PG06  24246.992594  -5043.111055  -9591.891321    329.203319
PG07  12060.089536  10843.562943  21345.573092     83.850652
PG08  -6389.092799  24491.049848   7809.072765   -123.073664
PG09   8191.195325  21763.964547  12783.800678    490.201630
PG10 -23806.777051 -10064.331141  -6480.254117    161.193858
PG11  -5401.864121  23019.689236 -12852.942241   -697.060395
PG12  -2142.081650 -17967.327860 -19699.799896    290.165764
PG13  12501.930712 -19439.625047  12946.160639    -83.764891
PG14 -15329.662292   4420.342922 -20904.177462    -95.523591
PG15   2283.887049 -25867.272054   4206.462649   -338.905755
PG16 -14787.551490   6212.440300  21093.641998     -2.528088
PG17  13620.418558   6646.211783 -21423.415220    -28.185047
PG19  15286.912754  -4666.480120 -21525.091333   -381.198359
PG20 -22286.315309 -14102.786539   3540.908977    519.027720
PG21 -15181.049453  -8570.681929  20822.267780   -300.004710
PG22  -1031.951419  16900.979280 -20239.310730   -580.451110
PG23   2403.831533  25858.636912   4681.370710   -205.534944
PG24   8433.619259 -18795.954754 -16720.410615    -58.514594
PG25 -13855.888921 -19239.591936 -12397.404170   -680.575600
PG26 -21501.027008   -266.257786  15688.143996     46.781126
PG27 -11768.791262  17290.524096  16122.509574    -21.622333
PG28  22120.482689  13776.545007  -4299.584458    755.611897
PG29  -4917.421170 -23411.346866  11516.247913    330.829312
PG30  21099.476420   3210.251066  15934.465821     -8.639646
PG31 -25062.473153   6496.515887  -6859.949070     77.927995
PG32 -14991.530274  -4029.326954 -21522.034376   -347.458235
PJ01 -20870.367938  20676.391841 -25646.065109   -263.484219
PJ02 -29862.066101  24550.442385  21533.171159     -0.811767
PJ03 -27187.157415  27211.204014  22213.362708      1.126404
PJ07 -25400.063513  33665.229257    -24.714661    251.282369
PR01  10716.085263  22630.862874  -4912.387003     35.355088
PR02  15810.701842  13607.670151  14673.707558    340.800249
PR03  10748.492964  -3282.395586  22927.327607    149.572754
PR04   -994.472675 -18485.663207  17565.285587    284.692360
PR05 -11611.281096 -22566.681599   2680.614331     16.042418
PR07 -10531.505212   3640.872542 -22920.722517    -52.135378
PR08    480.246156  18046.571953 -17974.222678     20.343376
PR09 -24263.293914  -3538.313860  -6892.497837     39.985157
PR10 -23304.050982   4035.156560   9435.664088     36.216578
PR11  -8566.263409  10352.517355  21692.295456    -47.869652
PR13  24040.997327   3483.933560   7779.587648    -17.121573
PR14  23350.669160  -4274.078417  -9334.930592     33.255181
PR15  13283.539260  -8982.507111 -19787.661031    -19.511715
PR16  -9963.166573 -10057.700484 -21262.206554    107.018255
PR17  15805.334201 -13766.537231 -14495.267392    182.231652
PR18  12185.394069 -22368.795141   1812.275837     27.426813
PR19   2309.004194 -18605.211739  17294.520396    -61.733372
PR20 -10324.309836  -3065.209485  23129.052067   -359.931040
PR21 -15800.982501  14224.115689  14122.603790    -15.897088
PR22 -11122.460710  22499.169659  -4188.815434    -64.638462
PR23   1208.824467  15757.217175 -20030.136133    192.289343
PR24  11130.383320   1527.642244 -22923.603135   -174.059750
PR26  -9542.231670  -4500.041459  23237.230092      5.858264
EOF
